LEGION 1                
1 59625U 24081A   24146.52375668  .00008545  00000+0  44319-3 0  9996
2 59625  97.5766 217.6227 0005090  95.1814 264.9999 15.16390214  3449
